FLOCK 4G-33             
1 62685U 25009CE  26196.18892274  .00003292  00000+0  13164-3 0  9991
2 62685  97.3948 275.7427 0004725 213.9056 146.1881 15.25798894 83072
FLOCK 4H-1              
1 66704U 25276AQ  26196.14596689  .00003663  00000+0  16905-3 0  9998
2 66704  97.4172 269.3931 0002010 172.9272 187.1992 15.20851364 34684
FLOCK 4H-2              
1 66705U 25276AR  26196.18545573  .00003379  00000+0  15496-3 0  9997
2 66705  97.4168 269.4807 0001463 154.1962 205.9347 15.21122803 34696
FLOCK 4H-3              
1 66706U 25276AS  26196.17547948  .00003457  00000+0  16252-3 0  9993
2 66706  97.4237 269.3956 0002461 248.7096 111.3876 15.20243690 34677
FLOCK 4H-4              
1 66707U 25276AT  26196.14571812  .00003987  00000+0  18810-3 0  9998
2 66707  97.4221 269.2334 0003143 254.9234 105.1654 15.20035107 34667
FLOCK 4H-5              
1 66708U 25276AU  26196.13823287  .00003449  00000+0  15911-3 0  9996
2 66708  97.4170 269.4068 0001354 134.6620 225.4726 15.20902173 34686
FLOCK 4H-6              
1 66709U 25276AV  26196.18419000  .00003379  00000+0  15730-3 0  9997
2 66709  97.4222 269.4953 0002497 204.7910 155.3206 15.20604570 34682
FLOCK 4H-7              
1 66710U 25276AW  26196.16597656  .00003768  00000+0  17619-3 0  9991
2 66710  97.4181 269.2351 0000690 301.5986  58.5182 15.20379282 34675
FLOCK 4H-8              
1 66711U 25276AX  26196.15687192  .00004008  00000+0  18662-3 0  9993
2 66711  97.4219 269.3759 0001860 271.2174  88.8848 15.20487278 34673
FLOCK 4H-9              
1 66712U 25276AY  26196.17068480  .00003956  00000+0  18264-3 0  9998
2 66712  97.4210 269.4839 0002469 214.1295 145.9782 15.20787821 34681
FLOCK 4H-10             
1 66713U 25276AZ  26196.19562123  .00003624  00000+0  17061-3 0  9990
2 66713  97.4186 269.2179 0002973 255.0294 105.0612 15.20163349 34673
FLOCK 4H-11             
1 66714U 25276BA  26196.15501560  .00008130  00000+0  34528-3 0  9999
2 66714  97.4193 269.7711 0001463 245.0214 115.0871 15.23327376 34700
FLOCK 4H-12             
1 66715U 25276BB  26196.15773507  .00003928  00000+0  18121-3 0  9993
2 66715  97.4185 269.4074 0001925 180.3619 179.7616 15.20815135 34991
FLOCK 4H-13             
1 66716U 25276BC  26196.19413902  .00003546  00000+0  16342-3 0  9997
2 66716  97.4216 269.6166 0001909 143.7483 216.3882 15.20915991 34696
FLOCK 4H-14             
1 66717U 25276BD  26196.15459475  .00003934  00000+0  17862-3 0  9998
2 66717  97.4201 269.6241 0001789 142.0101 218.1262 15.21364424 33949
FLOCK 4H-15             
1 66718U 25276BE  26196.16375284  .00003640  00000+0  17278-3 0  9990
2 66718  97.4215 269.1920 0002648 276.5406  83.5527 15.19881940 34662
