{"fetched_at":"2026-07-15T17:46:48.171Z","source":"https://celestrak.org/NORAD/elements/gp.php?GROUP=planet&FORMAT=JSON","constellation":"superdove","records":[{"OBJECT_NAME":"FLOCK 4G-33","OBJECT_ID":"2025-009CE","EPOCH":"2026-07-15T04:32:02.924736","CLASSIFICATION_TYPE":"U","MEAN_MOTION":15.25798894,"ECCENTRICITY":0.0004725,"INCLINATION":97.3948,"RA_OF_ASC_NODE":275.7427,"ARG_OF_PERICENTER":213.9056,"MEAN_ANOMALY":146.1881,"EPHEMERIS_TYPE":0,"NORAD_CAT_ID":62685,"ELEMENT_SET_NO":999,"REV_AT_EPOCH":8307,"BSTAR":0.00013164,"MEAN_MOTION_DOT":0.00003292,"MEAN_MOTION_DDOT":0},{"OBJECT_NAME":"FLOCK 4H-1","OBJECT_ID":"2025-276AQ","EPOCH":"2026-07-15T03:30:11.539296","CLASSIFICATION_TYPE":"U","MEAN_MOTION":15.20851364,"ECCENTRICITY":0.000201,"INCLINATION":97.4172,"RA_OF_ASC_NODE":269.3931,"ARG_OF_PERICENTER":172.9272,"MEAN_ANOMALY":187.1992,"EPHEMERIS_TYPE":0,"NORAD_CAT_ID":66704,"ELEMENT_SET_NO":999,"REV_AT_EPOCH":3468,"BSTAR":0.00016905,"MEAN_MOTION_DOT":0.00003663,"MEAN_MOTION_DDOT":0},{"OBJECT_NAME":"FLOCK 4H-2","OBJECT_ID":"2025-276AR","EPOCH":"2026-07-15T04:27:03.375072","CLASSIFICATION_TYPE":"U","MEAN_MOTION":15.21122803,"ECCENTRICITY":0.0001463,"INCLINATION":97.4168,"RA_OF_ASC_NODE":269.4807,"ARG_OF_PERICENTER":154.1962,"MEAN_ANOMALY":205.9347,"EPHEMERIS_TYPE":0,"NORAD_CAT_ID":66705,"ELEMENT_SET_NO":999,"REV_AT_EPOCH":3469,"BSTAR":0.00015496,"MEAN_MOTION_DOT":0.00003379,"MEAN_MOTION_DDOT":0},{"OBJECT_NAME":"FLOCK 4H-3","OBJECT_ID":"2025-276AS","EPOCH":"2026-07-15T04:12:41.427072","CLASSIFICATION_TYPE":"U","MEAN_MOTION":15.2024369,"ECCENTRICITY":0.0002461,"INCLINATION":97.4237,"RA_OF_ASC_NODE":269.3956,"ARG_OF_PERICENTER":248.7096,"MEAN_ANOMALY":111.3876,"EPHEMERIS_TYPE":0,"NORAD_CAT_ID":66706,"ELEMENT_SET_NO":999,"REV_AT_EPOCH":3467,"BSTAR":0.00016252,"MEAN_MOTION_DOT":0.00003457,"MEAN_MOTION_DDOT":0},{"OBJECT_NAME":"FLOCK 4H-4","OBJECT_ID":"2025-276AT","EPOCH":"2026-07-15T03:29:50.045568","CLASSIFICATION_TYPE":"U","MEAN_MOTION":15.20035107,"ECCENTRICITY":0.0003143,"INCLINATION":97.4221,"RA_OF_ASC_NODE":269.2334,"ARG_OF_PERICENTER":254.9234,"MEAN_ANOMALY":105.1654,"EPHEMERIS_TYPE":0,"NORAD_CAT_ID":66707,"ELEMENT_SET_NO":999,"REV_AT_EPOCH":3466,"BSTAR":0.0001881,"MEAN_MOTION_DOT":0.00003987,"MEAN_MOTION_DDOT":0},{"OBJECT_NAME":"FLOCK 4H-5","OBJECT_ID":"2025-276AU","EPOCH":"2026-07-15T03:19:03.319968","CLASSIFICATION_TYPE":"U","MEAN_MOTION":15.20902173,"ECCENTRICITY":0.0001354,"INCLINATION":97.417,"RA_OF_ASC_NODE":269.4068,"ARG_OF_PERICENTER":134.662,"MEAN_ANOMALY":225.4726,"EPHEMERIS_TYPE":0,"NORAD_CAT_ID":66708,"ELEMENT_SET_NO":999,"REV_AT_EPOCH":3468,"BSTAR":0.00015911,"MEAN_MOTION_DOT":0.00003449,"MEAN_MOTION_DDOT":0},{"OBJECT_NAME":"FLOCK 4H-6","OBJECT_ID":"2025-276AV","EPOCH":"2026-07-15T04:25:14.016000","CLASSIFICATION_TYPE":"U","MEAN_MOTION":15.2060457,"ECCENTRICITY":0.0002497,"INCLINATION":97.4222,"RA_OF_ASC_NODE":269.4953,"ARG_OF_PERICENTER":204.791,"MEAN_ANOMALY":155.3206,"EPHEMERIS_TYPE":0,"NORAD_CAT_ID":66709,"ELEMENT_SET_NO":999,"REV_AT_EPOCH":3468,"BSTAR":0.0001573,"MEAN_MOTION_DOT":0.00003379,"MEAN_MOTION_DDOT":0},{"OBJECT_NAME":"FLOCK 4H-7","OBJECT_ID":"2025-276AW","EPOCH":"2026-07-15T03:59:00.374784","CLASSIFICATION_TYPE":"U","MEAN_MOTION":15.20379282,"ECCENTRICITY":0.000069,"INCLINATION":97.4181,"RA_OF_ASC_NODE":269.2351,"ARG_OF_PERICENTER":301.5986,"MEAN_ANOMALY":58.5182,"EPHEMERIS_TYPE":0,"NORAD_CAT_ID":66710,"ELEMENT_SET_NO":999,"REV_AT_EPOCH":3467,"BSTAR":0.00017619,"MEAN_MOTION_DOT":0.00003768,"MEAN_MOTION_DDOT":0},{"OBJECT_NAME":"FLOCK 4H-8","OBJECT_ID":"2025-276AX","EPOCH":"2026-07-15T03:45:53.733888","CLASSIFICATION_TYPE":"U","MEAN_MOTION":15.20487278,"ECCENTRICITY":0.000186,"INCLINATION":97.4219,"RA_OF_ASC_NODE":269.3759,"ARG_OF_PERICENTER":271.2174,"MEAN_ANOMALY":88.8848,"EPHEMERIS_TYPE":0,"NORAD_CAT_ID":66711,"ELEMENT_SET_NO":999,"REV_AT_EPOCH":3467,"BSTAR":0.00018662,"MEAN_MOTION_DOT":0.00004008,"MEAN_MOTION_DDOT":0},{"OBJECT_NAME":"FLOCK 4H-9","OBJECT_ID":"2025-276AY","EPOCH":"2026-07-15T04:05:47.166720","CLASSIFICATION_TYPE":"U","MEAN_MOTION":15.20787821,"ECCENTRICITY":0.0002469,"INCLINATION":97.421,"RA_OF_ASC_NODE":269.4839,"ARG_OF_PERICENTER":214.1295,"MEAN_ANOMALY":145.9782,"EPHEMERIS_TYPE":0,"NORAD_CAT_ID":66712,"ELEMENT_SET_NO":999,"REV_AT_EPOCH":3468,"BSTAR":0.00018264,"MEAN_MOTION_DOT":0.00003956,"MEAN_MOTION_DDOT":0},{"OBJECT_NAME":"FLOCK 4H-10","OBJECT_ID":"2025-276AZ","EPOCH":"2026-07-15T04:41:41.674272","CLASSIFICATION_TYPE":"U","MEAN_MOTION":15.20163349,"ECCENTRICITY":0.0002973,"INCLINATION":97.4186,"RA_OF_ASC_NODE":269.2179,"ARG_OF_PERICENTER":255.0294,"MEAN_ANOMALY":105.0612,"EPHEMERIS_TYPE":0,"NORAD_CAT_ID":66713,"ELEMENT_SET_NO":999,"REV_AT_EPOCH":3467,"BSTAR":0.00017061,"MEAN_MOTION_DOT":0.00003624,"MEAN_MOTION_DDOT":0},{"OBJECT_NAME":"FLOCK 4H-11","OBJECT_ID":"2025-276BA","EPOCH":"2026-07-15T03:43:13.347840","CLASSIFICATION_TYPE":"U","MEAN_MOTION":15.23327376,"ECCENTRICITY":0.0001463,"INCLINATION":97.4193,"RA_OF_ASC_NODE":269.7711,"ARG_OF_PERICENTER":245.0214,"MEAN_ANOMALY":115.0871,"EPHEMERIS_TYPE":0,"NORAD_CAT_ID":66714,"ELEMENT_SET_NO":999,"REV_AT_EPOCH":3470,"BSTAR":0.00034528,"MEAN_MOTION_DOT":0.0000813,"MEAN_MOTION_DDOT":0},{"OBJECT_NAME":"FLOCK 4H-12","OBJECT_ID":"2025-276BB","EPOCH":"2026-07-15T03:47:08.310048","CLASSIFICATION_TYPE":"U","MEAN_MOTION":15.20815135,"ECCENTRICITY":0.0001925,"INCLINATION":97.4185,"RA_OF_ASC_NODE":269.4074,"ARG_OF_PERICENTER":180.3619,"MEAN_ANOMALY":179.7616,"EPHEMERIS_TYPE":0,"NORAD_CAT_ID":66715,"ELEMENT_SET_NO":999,"REV_AT_EPOCH":3499,"BSTAR":0.00018121,"MEAN_MOTION_DOT":0.00003928,"MEAN_MOTION_DDOT":0},{"OBJECT_NAME":"FLOCK 4H-13","OBJECT_ID":"2025-276BC","EPOCH":"2026-07-15T04:39:33.611328","CLASSIFICATION_TYPE":"U","MEAN_MOTION":15.20915991,"ECCENTRICITY":0.0001909,"INCLINATION":97.4216,"RA_OF_ASC_NODE":269.6166,"ARG_OF_PERICENTER":143.7483,"MEAN_ANOMALY":216.3882,"EPHEMERIS_TYPE":0,"NORAD_CAT_ID":66716,"ELEMENT_SET_NO":999,"REV_AT_EPOCH":3469,"BSTAR":0.00016342,"MEAN_MOTION_DOT":0.00003546,"MEAN_MOTION_DDOT":0},{"OBJECT_NAME":"FLOCK 4H-14","OBJECT_ID":"2025-276BD","EPOCH":"2026-07-15T03:42:36.986400","CLASSIFICATION_TYPE":"U","MEAN_MOTION":15.21364424,"ECCENTRICITY":0.0001789,"INCLINATION":97.4201,"RA_OF_ASC_NODE":269.6241,"ARG_OF_PERICENTER":142.0101,"MEAN_ANOMALY":218.1262,"EPHEMERIS_TYPE":0,"NORAD_CAT_ID":66717,"ELEMENT_SET_NO":999,"REV_AT_EPOCH":3394,"BSTAR":0.00017862,"MEAN_MOTION_DOT":0.00003934,"MEAN_MOTION_DDOT":0},{"OBJECT_NAME":"FLOCK 4H-15","OBJECT_ID":"2025-276BE","EPOCH":"2026-07-15T03:55:48.245376","CLASSIFICATION_TYPE":"U","MEAN_MOTION":15.1988194,"ECCENTRICITY":0.0002648,"INCLINATION":97.4215,"RA_OF_ASC_NODE":269.192,"ARG_OF_PERICENTER":276.5406,"MEAN_ANOMALY":83.5527,"EPHEMERIS_TYPE":0,"NORAD_CAT_ID":66718,"ELEMENT_SET_NO":999,"REV_AT_EPOCH":3466,"BSTAR":0.00017278,"MEAN_MOTION_DOT":0.0000364,"MEAN_MOTION_DDOT":0}]}
